start=new Date('2023-06-11T00:00:00.000Z').valueOf();
sats=[{"ARG_OF_PERICENTER":"89.7877","MEAN_ANOMALY":"270.3249","EPHEMERIS_TYPE":"0","MEAN_ELEMENT_THEORY":"SGP4","LAUNCH_DATE":"2021-03-24","OBJECT_TYPE":"PAYLOAD","FILE":"3929969","SITE":"AFETR","PERIOD":"95.593","ECCENTRICITY":"0.00012020","NORAD_CAT_ID":"47995","REF_FRAME":"TEME","GP_ID":"233652662","CENTER_NAME":"EARTH","DECAY_DATE":null,"TIME_SYSTEM":"UTC","REV_AT_EPOCH":"12419","TLE_LINE2":"2 47995  53.0543  98.8984 0001202  89.7877 270.3249 15.06382667124191","INCLINATION":"53.0543","EPOCH":"2023-06-10T20:11:10.201056","CLASSIFICATION_TYPE":"U","OBJECT_ID":"2021-024U","OBJECT_NAME":"STARLINK-2309","MEAN_MOTION":"15.06382667","PERIAPSIS":"546.434","RCS_SIZE":"LARGE","BSTAR":"0.00013613000000","MEAN_MOTION_DDOT":"0.0000000000000","TLE_LINE1":"1 47995U 21024U   23161.84109029  .00001746  00000-0  13613-3 0  9994","RA_OF_ASC_NODE":"98.8984","APOAPSIS":"548.099","MEAN_MOTION_DOT":"0.00001746","COUNTRY_CODE":"US","SEMIMAJOR_AXIS":"6925.402","ELEMENT_SET_NO":"999"},{"PERIOD":"95.593","ECCENTRICITY":"0.00007240","FILE":"3929969","SITE":"AFETR","MEAN_ELEMENT_THEORY":"SGP4","LAUNCH_DATE":"2021-03-24","OBJECT_TYPE":"PAYLOAD","EPHEMERIS_TYPE":"0","MEAN_ANOMALY":"280.5662","ARG_OF_PERICENTER":"79.5409","TIME_SYSTEM":"UTC","REV_AT_EPOCH":"12530","DECAY_DATE":null,"GP_ID":"233653407","CENTER_NAME":"EARTH","NORAD_CAT_ID":"47996","REF_FRAME":"TEME","MEAN_MOTION_DDOT":"0.0000000000000","BSTAR":"0.00002461700000","RCS_SIZE":"LARGE","OBJECT_NAME":"STARLINK-2260","MEAN_MOTION":"15.06391176","PERIAPSIS":"546.739","OBJECT_ID":"2021-024V","CLASSIFICATION_TYPE":"U","INCLINATION":"53.0547","TLE_LINE2":"2 47996  53.0547  23.6948 0000724  79.5409 280.5662 15.06391176125309","EPOCH":"2023-06-10T21:11:32.579808","ELEMENT_SET_NO":"999","SEMIMAJOR_AXIS":"6925.376","MEAN_MOTION_DOT":"0.00000085","COUNTRY_CODE":"US","APOAPSIS":"547.742","TLE_LINE1":"1 47996U 21024V   23161.88301597  .00000085  00000-0  24617-4 0  9995","RA_OF_ASC_NODE":"23.6948"},{"ECCENTRICITY":"0.00009070","PERIOD":"95.594","OBJECT_TYPE":"PAYLOAD","MEAN_ELEMENT_THEORY":"SGP4","LAUNCH_DATE":"2021-03-24","SITE":"AFETR","FILE":"3929969","EPHEMERIS_TYPE":"0","ARG_OF_PERICENTER":"86.4402","MEAN_ANOMALY":"273.6691","REV_AT_EPOCH":"12377","TIME_SYSTEM":"UTC","CENTER_NAME":"EARTH","GP_ID":"233651661","DECAY_DATE":null,"REF_FRAME":"TEME","NORAD_CAT_ID":"47997","BSTAR":"-0.00005563200000","MEAN_MOTION_DDOT":"0.0000000000000","MEAN_MOTION":"15.06377082","PERIAPSIS":"546.656","OBJECT_NAME":"STARLINK-2266","RCS_SIZE":"LARGE","OBJECT_ID":"2021-024W","EPOCH":"2023-06-10T22:43:02.969760","INCLINATION":"53.0537","TLE_LINE2":"2 47997  53.0537 133.1087 0000907  86.4402 273.6691 15.06377082123777","CLASSIFICATION_TYPE":"U","SEMIMAJOR_AXIS":"6925.419","ELEMENT_SET_NO":"999","APOAPSIS":"547.912","COUNTRY_CODE":"US","MEAN_MOTION_DOT":"-0.00001109","RA_OF_ASC_NODE":"133.1087","TLE_LINE1":"1 47997U 21024W   23161.94656215 -.00001109  00000-0 -55632-4 0  9994"},{"TIME_SYSTEM":"UTC","REV_AT_EPOCH":"12353","DECAY_DATE":null,"GP_ID":"233628690","CENTER_NAME":"EARTH","NORAD_CAT_ID":"47998","REF_FRAME":"TEME","PERIOD":"95.592","ECCENTRICITY":"0.00013710","FILE":"3929864","SITE":"AFETR","LAUNCH_DATE":"2021-03-24","MEAN_ELEMENT_THEORY":"SGP4","OBJECT_TYPE":"PAYLOAD","EPHEMERIS_TYPE":"0","MEAN_ANOMALY":"265.0172","ARG_OF_PERICENTER":"95.0973","ELEMENT_SET_NO":"999","SEMIMAJOR_AXIS":"6925.332","MEAN_MOTION_DOT":"0.00001058","COUNTRY_CODE":"US","APOAPSIS":"548.146","TLE_LINE1":"1 47998U 21024X   23161.55632253  .00001058  00000-0  89927-4 0  9993","RA_OF_ASC_NODE":"110.0965","MEAN_MOTION_DDOT":"0.0000000000000","BSTAR":"0.00008992700000","RCS_SIZE":"LARGE","OBJECT_NAME":"STARLINK-2296","PERIAPSIS":"546.247","MEAN_MOTION":"15.06405457","OBJECT_ID":"2021-024X","CLASSIFICATION_TYPE":"U","INCLINATION":"53.0533","TLE_LINE2":"2 47998  53.0533 110.0965 0001371  95.0973 265.0172 15.06405457123539","EPOCH":"2023-06-10T13:21:06.266592"},{"OBJECT_ID":"2021-024Y","CLASSIFICATION_TYPE":"U","INCLINATION":"53.0517","TLE_LINE2":"2 47999  53.0517  80.0812 0000609  96.2896 263.8163 15.06409936123946","EPOCH":"2023-06-10T12:09:23.413536","MEAN_MOTION_DDOT":"0.0000000000000","BSTAR":"0.00060485000000","RCS_SIZE":"LARGE","OBJECT_NAME":"STARLINK-2218","MEAN_MOTION":"15.06409936","PERIAPSIS":"546.761","TLE_LINE1":"1 47999U 21024Y   23161.50652099  .00008742  00000-0  60485-3 0  9993","RA_OF_ASC_NODE":"80.0812","ELEMENT_SET_NO":"999","SEMIMAJOR_AXIS":"6925.318","COUNTRY_CODE":"US","MEAN_MOTION_DOT":"0.00008742","APOAPSIS":"547.605","EPHEMERIS_TYPE":"0","MEAN_ANOMALY":"263.8163","ARG_OF_PERICENTER":"96.2896","PERIOD":"95.592","ECCENTRICITY":"0.00006090","FILE":"3929904","SITE":"AFETR","MEAN_ELEMENT_THEORY":"SGP4","LAUNCH_DATE":"2021-03-24","OBJECT_TYPE":"PAYLOAD","NORAD_CAT_ID":"47999","REF_FRAME":"TEME","TIME_SYSTEM":"UTC","REV_AT_EPOCH":"12394","DECAY_DATE":null,"CENTER_NAME":"EARTH","GP_ID":"233629770"},{"SEMIMAJOR_AXIS":"6925.379","ELEMENT_SET_NO":"999","APOAPSIS":"548.271","MEAN_MOTION_DOT":"-0.00004389","COUNTRY_CODE":"US","RA_OF_ASC_NODE":"64.1039","TLE_LINE1":"1 48000U 21024Z   23161.76873776 -.00004389  00000-0 -27599-3 0  9996","BSTAR":"-0.00027599000000","MEAN_MOTION_DDOT":"0.0000000000000","PERIAPSIS":"546.218","MEAN_MOTION":"15.06390007","OBJECT_NAME":"STARLINK-2270","RCS_SIZE":"LARGE","OBJECT_ID":"2021-024Z","EPOCH":"2023-06-10T18:26:58.942464","INCLINATION":"53.0555","TLE_LINE2":"2 48000  53.0555  64.1039 0001482  91.3577 268.7581 15.06390007124675","CLASSIFICATION_TYPE":"U","REV_AT_EPOCH":"12467","TIME_SYSTEM":"UTC","CENTER_NAME":"EARTH","GP_ID":"233652908","DECAY_DATE":null,"REF_FRAME":"TEME","NORAD_CAT_ID":"48000","ECCENTRICITY":"0.00014820","PERIOD":"95.593","OBJECT_TYPE":"PAYLOAD","MEAN_ELEMENT_THEORY":"SGP4","LAUNCH_DATE":"2021-03-24","SITE":"AFETR","FILE":"3929969","EPHEMERIS_TYPE":"0","ARG_OF_PERICENTER":"91.3577","MEAN_ANOMALY":"268.7581"},{"PERIOD":"95.591","ECCENTRICITY":"0.00010950","FILE":"3929297","SITE":"AFETR","LAUNCH_DATE":"2021-03-24","MEAN_ELEMENT_THEORY":"SGP4","OBJECT_TYPE":"PAYLOAD","EPHEMERIS_TYPE":"0","MEAN_ANOMALY":"259.3218","ARG_OF_PERICENTER":"100.7894","TIME_SYSTEM":"UTC","REV_AT_EPOCH":"12382","DECAY_DATE":null,"GP_ID":"233587857","CENTER_NAME":"EARTH","NORAD_CAT_ID":"48002","REF_FRAME":"TEME","MEAN_MOTION_DDOT":"0.0000000000000","BSTAR":"0.00105480000000","RCS_SIZE":"LARGE","OBJECT_NAME":"STARLINK-2265","MEAN_MOTION":"15.06422397","PERIAPSIS":"546.387","OBJECT_ID":"2021-024AB","CLASSIFICATION_TYPE":"U","INCLINATION":"53.0544","TLE_LINE2":"2 48002  53.0544  86.7741 0001095 100.7894 259.3218 15.06422397123829","EPOCH":"2023-06-10T04:46:56.675712","ELEMENT_SET_NO":"999","SEMIMAJOR_AXIS":"6925.280","MEAN_MOTION_DOT":"0.00015474","COUNTRY_CODE":"US","APOAPSIS":"547.903","TLE_LINE1":"1 48002U 21024AB  23161.19926708  .00015474  00000-0  10548-2 0  9999","RA_OF_ASC_NODE":"86.7741"},{"TIME_SYSTEM":"UTC","REV_AT_EPOCH":"12327","CENTER_NAME":"EARTH","GP_ID":"233620092","DECAY_DATE":null,"NORAD_CAT_ID":"48003","REF_FRAME":"TEME","PERIOD":"95.592","ECCENTRICITY":"0.00012050","LAUNCH_DATE":"2021-03-24","MEAN_ELEMENT_THEORY":"SGP4","OBJECT_TYPE":"PAYLOAD","FILE":"3929709","SITE":"AFETR","EPHEMERIS_TYPE":"0","ARG_OF_PERICENTER":"93.9896","MEAN_ANOMALY":"266.1230","SEMIMAJOR_AXIS":"6925.343","ELEMENT_SET_NO":"999","APOAPSIS":"548.042","MEAN_MOTION_DOT":"0.00001456","COUNTRY_CODE":"US","TLE_LINE1":"1 48003U 21024AC  23161.38583079  .00001456  00000-0  11658-3 0  9990","RA_OF_ASC_NODE":"160.6246","BSTAR":"0.00011658000000","MEAN_MOTION_DDOT":"0.0000000000000","OBJECT_NAME":"STARLINK-2263","PERIAPSIS":"546.373","MEAN_MOTION":"15.06401921","RCS_SIZE":"LARGE","OBJECT_ID":"2021-024AC","TLE_LINE2":"2 48003  53.0535 160.6246 0001205  93.9896 266.1230 15.06401921123279","INCLINATION":"53.0535","EPOCH":"2023-06-10T09:15:35.780256","CLASSIFICATION_TYPE":"U"},{"ELEMENT_SET_NO":"999","SEMIMAJOR_AXIS":"6925.370","MEAN_MOTION_DOT":"0.00001187","COUNTRY_CODE":"US","APOAPSIS":"548.114","TLE_LINE1":"1 48005U 21024AE  23161.89355978  .00001187  00000-0  98549-4 0  9999","RA_OF_ASC_NODE":"128.3464","MEAN_MOTION_DDOT":"0.0000000000000","BSTAR":"0.00009854900000","RCS_SIZE":"LARGE","OBJECT_NAME":"STARLINK-2254","MEAN_MOTION":"15.06392957","PERIAPSIS":"546.356","OBJECT_ID":"2021-024AE","CLASSIFICATION_TYPE":"U","TLE_LINE2":"2 48005  53.0535 128.3464 0001269 107.4515 252.6612 15.06392957123770","INCLINATION":"53.0535","EPOCH":"2023-06-10T21:26:43.564992","TIME_SYSTEM":"UTC","REV_AT_EPOCH":"12377","DECAY_DATE":null,"GP_ID":"233652663","CENTER_NAME":"EARTH","NORAD_CAT_ID":"48005","REF_FRAME":"TEME","PERIOD":"95.593","ECCENTRICITY":"0.00012690","FILE":"3929969","SITE":"AFETR","LAUNCH_DATE":"2021-03-24","MEAN_ELEMENT_THEORY":"SGP4","OBJECT_TYPE":"PAYLOAD","EPHEMERIS_TYPE":"0","MEAN_ANOMALY":"252.6612","ARG_OF_PERICENTER":"107.4515"},{"MEAN_MOTION_DDOT":"0.0000000000000","BSTAR":"0.00033721000000","RCS_SIZE":"LARGE","PERIAPSIS":"546.302","MEAN_MOTION":"15.06399529","OBJECT_NAME":"STARLINK-2271","OBJECT_ID":"2021-024AH","CLASSIFICATION_TYPE":"U","EPOCH":"2023-06-10T17:11:16.652544","TLE_LINE2":"2 48008  53.0527  64.1389 0001319  98.3965 261.7173 15.06399529124664","INCLINATION":"53.0527","ELEMENT_SET_NO":"999","SEMIMAJOR_AXIS":"6925.350","MEAN_MOTION_DOT":"0.00004745","COUNTRY_CODE":"US","APOAPSIS":"548.128","RA_OF_ASC_NODE":"64.1389","TLE_LINE1":"1 48008U 21024AH  23161.71616496  .00004745  00000-0  33721-3 0  9991","ECCENTRICITY":"0.00013190","PERIOD":"95.592","SITE":"AFETR","FILE":"3929969","OBJECT_TYPE":"PAYLOAD","LAUNCH_DATE":"2021-03-24","MEAN_ELEMENT_THEORY":"SGP4","EPHEMERIS_TYPE":"0","MEAN_ANOMALY":"261.7173","ARG_OF_PERICENTER":"98.3965","REV_AT_EPOCH":"12466","TIME_SYSTEM":"UTC","DECAY_DATE":null,"GP_ID":"233653408","CENTER_NAME":"EARTH","REF_FRAME":"TEME","NORAD_CAT_ID":"48008"}];
